NORAD_CAT_ID,OBJECT_NAME,OBJECT_TYPE,EPOCH,MEAN_MOTION,ECCENTRICITY,INCLINATION,RA_OF_ASC_NODE,ARG_OF_PERICENTER,MEAN_ANOMALY,BSTAR,MEAN_MOTION_DOT,MEAN_MOTION_DDOT,TLE_LINE0,TLE_LINE1,TLE_LINE2,SEMIMAJOR_AXIS,PERIOD,APOGEE,PERIGEE,DECAYED
56808.0,STARLINK-6042,PAYLOAD,2024-01-07 18:44:42,15.6927814,0.0003722,69.9988,149.6388,288.6653,71.4138,-0.00057395,-0.00066881,0.0,0 STARLINK-6042,1 56808U 23078AT  24007.78104627 -.00066881  00000-0 -57395-3 0  9998,2 56808  69.9988 149.6388 0003722 288.6653  71.4138 15.69278140 35093,6739.1,91.762,363.473,358.457,0.0
56808.0,STARLINK-6042,PAYLOAD,2024-01-08 11:34:29,15.69114268,0.0002997,69.9987,147.6738,245.574,114.5143,-0.00039007,-0.00045325,0.0,0 STARLINK-6042,1 56808U 23078AT  24008.48228613 -.00045325  00000-0 -39007-3 0  9998,2 56808  69.9987 147.6738 0002997 245.5740 114.5143 15.69114268 35209,6739.569,91.772,363.454,359.414,0.0
56808.0,STARLINK-6042,PAYLOAD,2024-01-08 19:13:30,15.69094026,0.0003556,69.9987,146.7795,273.5866,86.4922,-0.00037284,-0.00043312,0.0,0 STARLINK-6042,1 56808U 23078AT  24008.80104667 -.00043312  00000-0 -37284-3 0  9995,2 56808  69.9987 146.7795 0003556 273.5866  86.4922 15.69094026 34990,6739.627,91.773,363.889,359.095,0.0
56808.0,STARLINK-6042,PAYLOAD,2024-01-09 12:03:25,15.68932185,0.000267,69.9983,144.8082,258.6842,101.4053,-6.5571e-05,-7.77e-05,0.0,0 STARLINK-6042,1 56808U 23078AT  24009.50237771 -.00007770  00000-0 -65571-4 0  9995,2 56808  69.9983 144.8082 0002670 258.6842 101.4053 15.68932185 35369,6740.09,91.782,363.755,360.156,0.0
56808.0,STARLINK-6042,PAYLOAD,2024-01-09 22:00:00,15.68868129,0.0003371,70.0,143.645,275.9216,263.3141,-3.5755e-06,-6.21e-06,0.0,0 STARLINK-6042,1 56808U 23078AT  24009.91667824 -.00000621  00000-0 -35755-5 0  9996,2 56808  70.0000 143.6450 0003371 275.9216 263.3141 15.68868129 35423,6740.274,91.786,364.411,359.867,0.0
56808.0,STARLINK-6042,PAYLOAD,2024-01-10 11:00:39,15.68871466,0.0003487,69.9985,142.1256,271.6411,88.4385,6.6322e-06,5.54e-06,0.0,0 STARLINK-6042,1 56808U 23078AT  24010.45878601  .00000554  00000-0  66322-5 0  9991,2 56808  69.9985 142.1256 0003487 271.6411  88.4385 15.68871466 35253,6740.264,91.786,364.48,359.779,0.0
56808.0,STARLINK-6042,PAYLOAD,2024-01-10 18:39:42,15.68882024,0.0003174,70.0002,141.2335,270.2138,89.8693,2.1031e-05,2.214e-05,0.0,0 STARLINK-6042,1 56808U 23078AT  24010.77757353  .00002214  00000-0  21031-4 0  9998,2 56808  70.0002 141.2335 0003174 270.2138  89.8693 15.68882024 35561,6740.234,91.785,364.238,359.96,0.0
56808.0,STARLINK-6042,PAYLOAD,2024-01-11 11:29:39,15.68875482,0.000398,69.9962,139.2597,279.68,80.3945,-1.232e-05,-1.629e-05,0.0,0 STARLINK-6042,1 56808U 23078AT  24011.47893453 -.00001629  00000-0 -12320-4 0  9990,2 56808  69.9962 139.2597 0003980 279.6800  80.3945 15.68875482 35672,6740.253,91.785,364.801,359.435,0.0
56808.0,STARLINK-6042,PAYLOAD,2024-01-11 17:36:54,15.68880009,0.0003754,69.997,138.5457,266.771,93.3056,-9.5251e-06,-1.307e-05,0.0,0 STARLINK-6042,1 56808U 23078AT  24011.73396649 -.00001307  00000-0 -95251-5 0  9992,2 56808  69.9970 138.5457 0003754 266.7710  93.3056 15.68880009 35458,6740.24,91.785,364.635,359.575,0.0
56808.0,STARLINK-6042,PAYLOAD,2024-01-12 10:26:52,15.6887021,0.0004074,69.9965,136.5756,279.7324,80.3411,-5.1308e-07,-2.69e-06,0.0,0 STARLINK-6042,1 56808U 23078AT  24012.43532577 -.00000269  00000-0 -51308-6 0  9994,2 56808  69.9965 136.5756 0004074 279.7324  80.3411 15.68870210 35828,6740.268,91.786,364.879,359.387,0.0
56808.0,STARLINK-6042,PAYLOAD,2024-01-12 18:05:55,15.68874455,0.000379,69.9976,135.6827,271.5848,88.4913,7.3449e-06,6.36e-06,0.0,0 STARLINK-6042,1 56808U 23078AT  24012.75411762  .00000636  00000-0  73449-5 0  9996,2 56808  69.9976 135.6827 0003790 271.5848  88.4913 15.68874455 35870,6740.256,91.786,364.675,359.566,0.0
56808.0,STARLINK-6042,PAYLOAD,2024-01-13 10:56:03,15.68731039,0.0004334,69.9972,133.7146,280.7193,79.3514,-0.00014511,-0.00016792,0.0,0 STARLINK-6042,1 56808U 23078AT  24013.45559931 -.00016792  00000-0 -14511-3 0  9990,2 56808  69.9972 133.7146 0004334 280.7193  79.3514 15.68731039 35987,6740.667,91.794,365.453,359.61,0.0
56808.0,STARLINK-6042,PAYLOAD,2024-01-13 17:03:27,15.68646201,0.0003691,69.9973,132.9988,270.846,89.2312,-0.00023242,-0.00026642,0.0,0 STARLINK-6042,1 56808U 23078AT  24013.71073411 -.00026642  00000-0 -23242-3 0  9999,2 56808  69.9973 132.9988 0003691 270.8460  89.2312 15.68646201 36023,6740.91,91.799,365.263,360.287,0.0
56808.0,STARLINK-6042,PAYLOAD,2024-01-14 11:25:50,15.68301783,0.0003259,69.9989,130.8539,258.8677,101.2151,-0.00056241,-0.00062997,0.0,0 STARLINK-6042,1 56808U 23078AT  24014.47628063 -.00062997  00000-0 -56241-3 0  9990,2 56808  69.9989 130.8539 0003259 258.8677 101.2151 15.68301783 36147,6741.897,91.819,365.959,361.564,0.0
56808.0,STARLINK-6042,PAYLOAD,2024-01-14 16:01:26,15.68243451,0.0003712,69.9979,130.3176,260.4424,99.6351,-0.00060367,-0.00067414,0.0,0 STARLINK-6042,1 56808U 23078AT  24014.66766733 -.00067414  00000-0 -60367-3 0  9991,2 56808  69.9979 130.3176 0003712 260.4424  99.6351 15.68243451 36173,6742.064,91.822,366.431,361.426,0.0
56808.0,STARLINK-6042,PAYLOAD,2024-01-15 10:24:09,15.67799801,0.0004153,69.9975,128.1691,283.3213,76.7518,-0.00076268,-0.00083446,0.0,0 STARLINK-6042,1 56808U 23078AT  24015.43344241 -.00083446  00000-0 -76268-3 0  9993,2 56808  69.9975 128.1691 0004153 283.3213  76.7518 15.67799801 36294,6743.336,91.848,368.001,362.4,0.0
56808.0,STARLINK-6042,PAYLOAD,2024-01-15 22:00:00,15.66979933,0.0003549,69.9996,126.8144,277.9708,288.5388,-0.0035672,-0.00364373,0.0,0 STARLINK-6042,1 56808U 23078AT  24015.91667824 -.00364373  00000-0 -35672-2 0  9995,2 56808  69.9996 126.8144 0003549 277.9708 288.5388 15.66979933 36362,6745.687,91.897,369.947,365.158,0.0
56808.0,STARLINK-6042,PAYLOAD,2024-01-16 14:00:01,15.6651657,0.0003668,69.9995,124.9491,278.1248,87.4323,-0.0030881,-0.00311574,0.0,0 STARLINK-6042,1 56808U 23078AT  24016.58334491 -.00311574  00000-0 -30881-2 0  9992,2 56808  69.9995 124.9491 0003668 278.1248  87.4323 15.66516570 36470,6747.018,91.924,371.357,366.408,0.0
56808.0,STARLINK-6042,PAYLOAD,2024-01-16 22:00:00,15.66329157,0.0003636,69.9989,124.0165,279.0896,165.5845,-0.0036802,-0.00366103,0.0,0 STARLINK-6042,1 56808U 23078AT  24016.91667824 -.00366103  00000-0 -36802-2 0  9995,2 56808  69.9989 124.0165 0003636 279.0896 165.5845 15.66329157  5999,6747.556,91.935,371.874,366.967,0.0
56808.0,STARLINK-6042,PAYLOAD,2024-01-17 14:00:01,15.65860885,0.0003556,69.9992,122.1526,277.8981,324.2608,-0.0030814,-0.00303114,0.0,0 STARLINK-6042,1 56808U 23078AT  24017.58334491 -.00303114  00000-0 -30814-2 0  9990,2 56808  69.9992 122.1526 0003556 277.8981 324.2608 15.65860885  6039,6748.901,91.962,373.166,368.366,0.0
56808.0,STARLINK-6042,PAYLOAD,2024-01-17 22:00:01,15.65676125,0.0003571,69.999,121.221,277.6506,42.9095,-0.0038261,-0.00370563,0.0,0 STARLINK-6042,1 56808U 23078AT  24017.91668981 -.00370563  00000-0 -38261-2 0  9997,2 56808  69.9990 121.2210 0003571 277.6506  42.9095 15.65676125 36685,6749.432,91.973,373.707,368.887,0.0
56808.0,STARLINK-6042,PAYLOAD,2024-01-18 14:00:01,15.65206302,0.0003702,69.9989,119.3594,278.5649,197.8476,-0.0031289,-0.00299968,0.0,0 STARLINK-6042,1 56808U 23078AT  24018.58334491 -.00299968  00000-0 -31289-2 0  9999,2 56808  69.9989 119.3594 0003702 278.5649 197.8476 15.65206302 36780,6750.783,92.001,375.147,370.148,0.0
56808.0,STARLINK-6042,PAYLOAD,2024-01-18 22:00:00,15.65025138,0.0003655,69.9986,118.4286,277.6281,276.3371,-0.0039717,-0.00374622,0.0,0 STARLINK-6042,1 56808U 23078AT  24018.91667824 -.00374622  00000-0 -39717-2 0  9990,2 56808  69.9986 118.4286 0003655 277.6281 276.3371 15.65025138  6021,6751.303,92.011,375.636,370.701,0.0
56808.0,STARLINK-6042,PAYLOAD,2024-01-19 14:00:01,15.64558386,0.0003781,69.9991,116.5683,278.968,69.3496,-0.0032794,-0.0030618,0.0,0 STARLINK-6042,1 56808U 23078AT  24019.58334491 -.00306180  00000-0 -32794-2 0  9997,2 56808  69.9991 116.5683 0003781 278.9680  69.3496 15.64558386 36941,6752.646,92.039,377.064,371.958,0.0
56808.0,STARLINK-6042,PAYLOAD,2024-01-19 16:00:01,15.64492097,0.0003753,69.9993,116.3357,280.6105,176.9951,-0.0029983,-0.00280088,0.0,0 STARLINK-6042,1 56808U 23078AT  24019.66668981 -.00280088  00000-0 -29983-2 0  9994,2 56808  69.9993 116.3357 0003753 280.6105 176.9951 15.64492097  5943,6752.837,92.043,377.236,372.168,0.0
56808.0,STARLINK-6042,PAYLOAD,2024-01-20 00:00:00,15.64287862,0.0003595,69.9991,115.4062,277.1033,257.152,-0.003488,-0.00321567,0.0,0 STARLINK-6042,1 56808U 23078AT  24020.00001157 -.00321567  00000-0 -34880-2 0  9990,2 56808  69.9991 115.4062 0003595 277.1033 257.1520 15.64287862  6003,6753.425,92.055,377.717,372.862,0.0
56808.0,STARLINK-6042,PAYLOAD,2024-01-20 14:00:01,15.63899168,0.0003614,69.999,113.7806,279.4813,298.3989,-0.0032276,-0.00294016,0.0,0 STARLINK-6042,1 56808U 23078AT  24020.58334491 -.00294016  00000-0 -32276-2 0  9998,2 56808  69.9990 113.7806 0003614 279.4813 298.3989 15.63899168 37098,6754.544,92.078,378.85,373.968,0.0
56808.0,STARLINK-6042,PAYLOAD,2024-01-20 16:00:00,15.6384481,0.0003673,69.999,113.5483,280.1723,46.7302,-0.003161,-0.00287564,0.0,0 STARLINK-6042,1 56808U 23078AT  24020.66667824 -.00287564  00000-0 -31610-2 0  9997,2 56808  69.9990 113.5483 0003673 280.1723  46.7302 15.63844810  6040,6754.7,92.081,379.046,374.084,0.0
56808.0,STARLINK-6042,PAYLOAD,2024-01-21 00:00:00,15.63625542,0.0003505,69.999,112.6195,276.1765,126.6637,-0.003352,-0.00301781,0.0,0 STARLINK-6042,1 56808U 23078AT  24021.00001157 -.00301781  00000-0 -33520-2 0  9997,2 56808  69.9990 112.6195 0003505 276.1765 126.6637 15.63625542  5996,6755.332,92.094,379.564,374.829,0.0
56808.0,STARLINK-6042,PAYLOAD,2024-01-21 06:00:02,15.63483429,0.0003433,69.9993,111.9234,273.4259,96.2426,-0.0034752,-0.00310782,0.0,0 STARLINK-6042,1 56808U 23078AT  24021.25002315 -.00310782  00000-0 -34752-2 0  9990,2 56808  69.9993 111.9234 0003433 273.4259  96.2426 15.63483429 37206,6755.741,92.102,379.925,375.287,0.0
